NORAD_CAT_ID,OBJECT_NAME,OBJECT_TYPE,EPOCH,MEAN_MOTION,ECCENTRICITY,INCLINATION,RA_OF_ASC_NODE,ARG_OF_PERICENTER,MEAN_ANOMALY,BSTAR,MEAN_MOTION_DOT,MEAN_MOTION_DDOT,TLE_LINE0,TLE_LINE1,TLE_LINE2,SEMIMAJOR_AXIS,PERIOD,APOGEE,PERIGEE,DECAYED
51888.0,STARLINK-3536,PAYLOAD,2022-04-28 20:00:01,15.73270659,0.0002566,53.2124,225.8769,21.519,70.9876,-0.00045764,-0.00064564,0.0,0 STARLINK-3536,1 51888U 22022AN  22118.83334491 -.00064564  00000-0 -45764-3 0  9993,2 51888  53.2124 225.8769 0002566  21.5190  70.9876 15.73270659 10064,6727.694,91.529,351.285,347.832,0.0
51888.0,STARLINK-3536,PAYLOAD,2022-04-29 06:00:00,15.73174727,0.0002339,53.2127,223.8129,26.5052,267.2139,-0.00014193,-0.00020473,0.0,0 STARLINK-3536,1 51888U 22022AN  22119.25001157 -.00020473  00000-0 -14193-3 0  9993,2 51888  53.2127 223.8129 0002339  26.5052 267.2139 15.73174727 10135,6727.967,91.535,351.406,348.259,0.0
51888.0,STARLINK-3536,PAYLOAD,2022-04-29 14:00:01,15.73182269,0.0002591,53.2127,222.1656,23.5169,359.0885,-0.00033839,-0.00047816,0.0,0 STARLINK-3536,1 51888U 22022AN  22119.58334491 -.00047816  00000-0 -33839-3 0  9997,2 51888  53.2127 222.1656 0002591  23.5169 359.0885 15.73182269  3701,6727.946,91.534,351.55400000000014,348.0680000000001,0.0
51888.0,STARLINK-3536,PAYLOAD,2022-04-29 22:00:00,15.73161009,0.0002533,53.2127,220.5153,15.9432,95.5674,-0.00020909,-0.00029818,0.0,0 STARLINK-3536,1 51888U 22022AN  22119.91667824 -.00029818  00000-0 -20909-3 0  9999,2 51888  53.2127 220.5153 0002533  15.9432  95.5674 15.73161009  3683,6728.005999999999,91.535,351.576,348.167,0.0
51888.0,STARLINK-3536,PAYLOAD,2022-04-30 06:00:00,15.73131935,0.0002393,53.2131,218.8645,17.6799,182.685,0.00079048,0.00111483,0.0,0 STARLINK-3536,1 51888U 22022AN  22120.25001157  .00111483  00000-0  79048-3 0  9995,2 51888  53.2131 218.8645 0002393  17.6799 182.6850 15.73131935 10297,6728.089,91.537,351.564,348.344,0.0
51888.0,STARLINK-3536,PAYLOAD,2022-04-30 14:00:01,15.73224942,0.0002715,53.2135,217.2157,16.2202,273.0348,-0.00013307,-0.00019279,0.0,0 STARLINK-3536,1 51888U 22022AN  22120.58334491 -.00019279  00000-0 -13307-3 0  9999,2 51888  53.2135 217.2157 0002715  16.2202 273.0348 15.73224942  3755,6727.824000000001,91.532,351.516,347.862,0.0
51888.0,STARLINK-3536,PAYLOAD,2022-04-30 22:00:00,15.73242543,0.0002719,53.2127,215.5667,14.8442,3.3446,-0.00060953,-0.00085476,0.0,0 STARLINK-3536,1 51888U 22022AN  22120.91667824 -.00085476  00000-0 -60953-3 0  9996,2 51888  53.2127 215.5667 0002719  14.8442   3.3446 15.73242543 10395,6727.774,91.531,351.468,347.81,0.0
51888.0,STARLINK-3536,PAYLOAD,2022-05-01 14:00:01,15.73231351,0.0002826,53.2127,212.2689,15.4085,180.613,-0.00060589,-0.00084936,0.0,0 STARLINK-3536,1 51888U 22022AN  22121.58334491 -.00084936  00000-0 -60589-3 0  9996,2 51888  53.2127 212.2689 0002826  15.4085 180.6130 15.73231351 10509,6727.806,91.531,351.57199999999995,347.77,0.0
51888.0,STARLINK-3536,PAYLOAD,2022-05-01 22:00:01,15.73168184,0.0002761,53.2125,210.6181,10.2715,274.7506,-1.6517e-05,-2.937e-05,0.0,0 STARLINK-3536,1 51888U 22022AN  22121.91668981 -.00002937  00000-0 -16517-4 0  9991,2 51888  53.2125 210.6181 0002761  10.2715 274.7506 15.73168184  3717,6727.986,91.535,351.708,347.99300000000005,0.0
51888.0,STARLINK-3536,PAYLOAD,2022-05-02 06:00:00,15.7316481,0.0002676,53.2129,208.9676,12.2091,1.6146,0.00052008,0.00072903,0.0,0 STARLINK-3536,1 51888U 22022AN  22122.25001157  .00072903  00000-0  52008-3 0  9997,2 51888  53.2129 208.9676 0002676  12.2091   1.6146 15.73164810 10609,6727.996,91.535,351.661,348.06,0.0
51888.0,STARLINK-3536,PAYLOAD,2022-05-02 14:00:01,15.732050699999998,0.0003036,53.2128,207.3202,13.2287,89.5081,0.0002402,0.00033235,0.0,0 STARLINK-3536,1 51888U 22022AN  22122.58334491  .00033235  00000-0  24020-3 0  9991,2 51888  53.2128 207.3202 0003036  13.2287  89.5081 15.73205070  3693,6727.880999999999,91.533,351.788,347.70300000000015,0.0
51888.0,STARLINK-3536,PAYLOAD,2022-05-02 22:00:01,15.73232908,0.0003021,53.2123,205.6693,14.7387,177.0224,-0.00025471,-0.00036276,0.0,0 STARLINK-3536,1 51888U 22022AN  22122.91668981 -.00036276  00000-0 -25471-3 0  9993,2 51888  53.2123 205.6693 0003021  14.7387 177.0224 15.73232908 10717,6727.801,91.531,351.699,347.634,0.0
51888.0,STARLINK-3536,PAYLOAD,2022-05-03 14:00:01,15.73170837,0.0003141,53.2121,202.3717,14.0539,355.524,0.00045085,0.00063062,0.0,0 STARLINK-3536,1 51888U 22022AN  22123.58334491  .00063062  00000-0  45085-3 0  9997,2 51888  53.2121 202.3717 0003141  14.0539 355.5240 15.73170837  3705,6727.978,91.535,351.957,347.73,0.0
51888.0,STARLINK-3536,PAYLOAD,2022-05-03 20:00:01,15.73234983,0.000311,53.2127,201.1308,12.4931,333.7801,0.00015423,0.00021114,0.0,0 STARLINK-3536,1 51888U 22022AN  22123.83334491  .00021114  00000-0  15423-3 0  9990,2 51888  53.2127 201.1308 0003110  12.4931 333.7801 15.73234983 10856,6727.795,91.531,351.75300000000016,347.5680000000001,0.0
51888.0,STARLINK-3536,PAYLOAD,2022-05-03 22:00:00,15.73251311,0.0003013999999999,53.2133,200.7164,13.2788,85.2347,-3.1579000000000004e-05,-5.063e-05,0.0,0 STARLINK-3536,1 51888U 22022AN  22123.91667824 -.00005063  00000-0 -31579-4 0  9996,2 51888  53.2133 200.7164 0003014  13.2788  85.2347 15.73251311  3704,6727.749,91.53,351.642,347.586,0.0
51888.0,STARLINK-3536,PAYLOAD,2022-05-04 06:00:02,15.73289267,0.0002945,53.2153,199.0602,12.179,175.3943,-0.0033403,-0.00447254,0.0,0 STARLINK-3536,1 51888U 22022AN  22124.25002315 -.00447254  00000-0 -33403-2 0  9990,2 51888  53.2153 199.0602 0002945  12.1790 175.3943 15.73289267 10922,6727.641,91.528,351.487,347.524,0.0
51888.0,STARLINK-3536,PAYLOAD,2022-05-04 14:00:01,15.73146339,0.000313,53.2174,197.4079,9.0115,267.3008,-0.0055009,-0.00709542,0.0,0 STARLINK-3536,1 51888U 22022AN  22124.58334491 -.00709542  00000-0 -55009-2 0  9996,2 51888  53.2174 197.4079 0003130   9.0115 267.3008 15.73146339  3702,6728.0480000000025,91.536,352.019,347.807,0.0
51888.0,STARLINK-3536,PAYLOAD,2022-05-04 20:00:01,15.7277223,0.0002912,53.2174,196.1683,11.4906,241.3631,-0.0057116,-0.00723655,0.0,0 STARLINK-3536,1 51888U 22022AN  22124.83335648 -.00723655  00000-0 -57116-2 0  9991,2 51888  53.2174 196.1683 0002912  11.4906 241.3631 15.72772230 11012,6729.115,91.558,352.94,349.021,0.0
51888.0,STARLINK-3536,PAYLOAD,2022-05-04 22:00:01,15.72642513,0.0002894,53.2176,195.7555,8.9665,355.9708,-0.0057113,-0.00719913,0.0,0 STARLINK-3536,1 51888U 22022AN  22124.91668981 -.00719913  00000-0 -57113-2 0  9998,2 51888  53.2176 195.7555 0002894   8.9665 355.9708 15.72642513  3703,6729.485,91.566,353.298,349.403,0.0
51888.0,STARLINK-3536,PAYLOAD,2022-05-05 14:00:01,15.71620268,0.0003525,53.2175,192.4616,6.3329,173.8188,-0.0059243,-0.0071543,0.0,0 STARLINK-3536,1 51888U 22022AN  22125.58334491 -.00715430  00000-0 -59243-2 0  9994,2 51888  53.2175 192.4616 0003525   6.3329 173.8188 15.71620268  3717,6732.403,91.625,356.641,351.895,0.0
51888.0,STARLINK-3536,PAYLOAD,2022-05-05 22:00:00,15.71107511,0.0003223,53.2174,190.8145,314.5211,312.3528,-0.0059985,-0.00709232,0.0,0 STARLINK-3536,1 51888U 22022AN  22125.91667824 -.00709232  00000-0 -59985-2 0  9996,2 51888  53.2174 190.8145 0003223 314.5211 312.3528 15.71107511  3667,6733.868,91.655,357.903,353.56199999999984,0.0
51888.0,STARLINK-3536,PAYLOAD,2022-05-06 08:00:01,15.70469356,0.0005556,53.2167,188.7603,291.1090000000001,173.3054,-0.006196,-0.00713582,0.0,0 STARLINK-3536,1 51888U 22022AN  22126.33334491 -.00713582  00000-0 -61960-2 0  9993,2 51888  53.2167 188.7603 0005556 291.1090 173.3054 15.70469356 11249,6735.691999999999,91.692,361.299,353.814,0.0
51888.0,STARLINK-3536,PAYLOAD,2022-05-06 14:00:01,15.70098442,0.0004943,53.2176,187.5275,306.831,131.6428,-0.0064518999999999,-0.00729877,0.0,0 STARLINK-3536,1 51888U 22022AN  22126.58334491 -.00729877  00000-0 -64519-2 0  9997,2 51888  53.2176 187.5275 0004943 306.8310 131.6428 15.70098442  3718,6736.752,91.714,361.947,355.287,0.0
51888.0,STARLINK-3536,PAYLOAD,2022-05-07 06:00:02,15.69069856,0.0001234,53.2178,184.2425,33.4923,214.2033,-0.0065827,-0.00713638,0.0,0 STARLINK-3536,1 51888U 22022AN  22127.25002315 -.00713638  00000-0 -65827-2 0  9990,2 51888  53.2178 184.2425 0001234  33.4923 214.2033 15.69069856 11392,6739.696,91.774,362.393,360.73,0.0
51888.0,STARLINK-3536,PAYLOAD,2022-05-07 14:00:01,15.68560945,0.0001187,53.2174,182.6046,56.2495,275.0363,-0.0067411999999999,-0.00715396,0.0,0 STARLINK-3536,1 51888U 22022AN  22127.58334491 -.00715396  00000-0 -67412-2 0  9994,2 51888  53.2174 182.6046 0001187  56.2495 275.0363 15.68560945  3704,6741.154,91.804,363.819,362.219,0.0
51888.0,STARLINK-3536,PAYLOAD,2022-05-07 22:00:00,15.68051198,0.0001088,53.2174,180.9642,59.9409,354.3902,-0.0068867999999999,-0.00715591,0.0,0 STARLINK-3536,1 51888U 22022AN  22127.91667824 -.00715591  00000-0 -68868-2 0  9993,2 51888  53.2174 180.9642 0001088  59.9409 354.3902 15.68051198  3707,6742.615,91.834,365.213,363.746,0.0
51888.0,STARLINK-3536,PAYLOAD,2022-05-08 06:00:00,15.67541736,0.0001309,53.2174,179.3272,55.7281,81.0343,-0.0070401,-0.00716345,0.0,0 STARLINK-3536,1 51888U 22022AN  22128.25001157 -.00716345  00000-0 -70401-2 0  9996,2 51888  53.2174 179.3272 0001309  55.7281  81.0343 15.67541736 11541,6744.076,91.864,366.823,365.0580000000001,0.0
51888.0,STARLINK-3536,PAYLOAD,2022-05-08 14:00:01,15.67027871,0.000125,53.2174,177.6928,68.5228,150.0586,-0.0071155,-0.00709534,0.0,0 STARLINK-3536,1 51888U 22022AN  22128.58334491 -.00709534  00000-0 -71155-2 0  9991,2 51888  53.2174 177.6928 0001250  68.5228 150.0586 15.67027871  3702,6745.55,91.894,368.258,366.572,0.0
51888.0,STARLINK-3536,PAYLOAD,2022-05-08 22:00:00,15.66521984,0.0001240999999999,53.2176,176.0561,55.6076,244.1796,-0.0073415999999999,-0.0071653,0.0,0 STARLINK-3536,1 51888U 22022AN  22128.91667824 -.00716530  00000-0 -73416-2 0  9993,2 51888  53.2176 176.0561 0001241  55.6076 244.1796 15.66521984  3709,6747.002,91.923,369.704,368.03,0.0
